ORBCOMM FM33            
1 25983U 99065D   25028.89770557  .00003086  00000+0  10282-2 0  9992
2 25983  45.0290 300.9179 0008663  73.4352 286.7448 14.39357482315997
ORBCOMM FM36            
1 25984U 99065E   25028.67871926  .00003038  00000+0  10527-2 0  9990
2 25984  45.0393  31.7339 0005367 309.3440  50.6932 14.37462041314346
ORBCOMM FM35            
1 25985U 99065F   25028.70135329  .00002358  00000+0  84317-3 0  9998
2 25985  45.0397  35.5974 0002733  17.7458 342.3485 14.36539845314723
ORBCOMM FM34            
1 25986U 99065G   25028.74058584  .00002049  00000+0  73833-3 0  9998
2 25986  45.0394  35.9276 0004801 337.1973  22.8662 14.36586206314842
ORBCOMM FM38            
1 33060U 08031A   25028.74539124  .00003822  00000+0  52415-3 0  9990
2 33060  48.4389 259.3113 0005796 161.4479 198.6648 14.80251224894083
ORBCOMM FM41            
1 33061U 08031B   25028.40650601  .00003708  00000+0  51395-3 0  9997
2 33061  48.4427 268.2419 0004867 145.8722  28.8934 14.79876283893526
ORBCOMM FM29            
1 33062U 08031C   25028.84745740  .00004271  00000+0  58688-3 0  9993
2 33062  48.4384 274.0979 0006619 145.2784 265.7917 14.79926406893508
ORBCOMM FM39            
1 33063U 08031D   25028.87270238  .00004067  00000+0  57765-3 0  9990
2 33063  48.4408 296.7818 0007273 117.9611 242.2040 14.78614018893173
