<?xml version="1.0" encoding="UTF-8"?>
<ndm xmlns:xsi="http://www.w3.org/2001/XMLSchema-instance" xsi:noNamespaceSchemaLocation="https://sanaregistry.org/r/ndmxml_unqualified/ndmxml-2.0.0-master-2.0.xsd">
<omm id="CCSDS_OMM_VERS" version="2.0">
<header><CREATION_DATE/><ORIGINATOR/></header><body><segment><metadata><OBJECT_NAME>ORBCOMM FM33</OBJECT_NAME><OBJECT_ID>1999-065D</OBJECT_ID><CENTER_NAME>EARTH</CENTER_NAME><REF_FRAME>TEME</REF_FRAME><TIME_SYSTEM>UTC</TIME_SYSTEM><MEAN_ELEMENT_THEORY>SGP4</MEAN_ELEMENT_THEORY></metadata><data><meanElements><EPOCH>2025-01-28T21:32:41.761248</EPOCH><MEAN_MOTION>14.39357482</MEAN_MOTION><ECCENTRICITY>.0008663</ECCENTRICITY><INCLINATION>45.0290</INCLINATION><RA_OF_ASC_NODE>300.9179</RA_OF_ASC_NODE><ARG_OF_PERICENTER>73.4352</ARG_OF_PERICENTER><MEAN_ANOMALY>286.7448</MEAN_ANOMALY></meanElements><tleParameters><EPHEMERIS_TYPE>0</EPHEMERIS_TYPE><CLASSIFICATION_TYPE>U</CLASSIFICATION_TYPE><NORAD_CAT_ID>25983</NORAD_CAT_ID><ELEMENT_SET_NO>999</ELEMENT_SET_NO><REV_AT_EPOCH>31599</REV_AT_EPOCH><BSTAR>.10282E-2</BSTAR><MEAN_MOTION_DOT>.3086E-4</MEAN_MOTION_DOT><MEAN_MOTION_DDOT>0</MEAN_MOTION_DDOT></tleParameters></data></segment></body></omm>
<omm id="CCSDS_OMM_VERS" version="2.0">
<header><CREATION_DATE/><ORIGINATOR/></header><body><segment><metadata><OBJECT_NAME>ORBCOMM FM36</OBJECT_NAME><OBJECT_ID>1999-065E</OBJECT_ID><CENTER_NAME>EARTH</CENTER_NAME><REF_FRAME>TEME</REF_FRAME><TIME_SYSTEM>UTC</TIME_SYSTEM><MEAN_ELEMENT_THEORY>SGP4</MEAN_ELEMENT_THEORY></metadata><data><meanElements><EPOCH>2025-01-28T16:17:21.344064</EPOCH><MEAN_MOTION>14.37462041</MEAN_MOTION><ECCENTRICITY>.0005367</ECCENTRICITY><INCLINATION>45.0393</INCLINATION><RA_OF_ASC_NODE>31.7339</RA_OF_ASC_NODE><ARG_OF_PERICENTER>309.3440</ARG_OF_PERICENTER><MEAN_ANOMALY>50.6932</MEAN_ANOMALY></meanElements><tleParameters><EPHEMERIS_TYPE>0</EPHEMERIS_TYPE><CLASSIFICATION_TYPE>U</CLASSIFICATION_TYPE><NORAD_CAT_ID>25984</NORAD_CAT_ID><ELEMENT_SET_NO>999</ELEMENT_SET_NO><REV_AT_EPOCH>31434</REV_AT_EPOCH><BSTAR>.10527E-2</BSTAR><MEAN_MOTION_DOT>.3038E-4</MEAN_MOTION_DOT><MEAN_MOTION_DDOT>0</MEAN_MOTION_DDOT></tleParameters></data></segment></body></omm>
<omm id="CCSDS_OMM_VERS" version="2.0">
<header><CREATION_DATE/><ORIGINATOR/></header><body><segment><metadata><OBJECT_NAME>ORBCOMM FM35</OBJECT_NAME><OBJECT_ID>1999-065F</OBJECT_ID><CENTER_NAME>EARTH</CENTER_NAME><REF_FRAME>TEME</REF_FRAME><TIME_SYSTEM>UTC</TIME_SYSTEM><MEAN_ELEMENT_THEORY>SGP4</MEAN_ELEMENT_THEORY></metadata><data><meanElements><EPOCH>2025-01-28T16:49:56.924256</EPOCH><MEAN_MOTION>14.36539845</MEAN_MOTION><ECCENTRICITY>.0002733</ECCENTRICITY><INCLINATION>45.0397</INCLINATION><RA_OF_ASC_NODE>35.5974</RA_OF_ASC_NODE><ARG_OF_PERICENTER>17.7458</ARG_OF_PERICENTER><MEAN_ANOMALY>342.3485</MEAN_ANOMALY></meanElements><tleParameters><EPHEMERIS_TYPE>0</EPHEMERIS_TYPE><CLASSIFICATION_TYPE>U</CLASSIFICATION_TYPE><NORAD_CAT_ID>25985</NORAD_CAT_ID><ELEMENT_SET_NO>999</ELEMENT_SET_NO><REV_AT_EPOCH>31472</REV_AT_EPOCH><BSTAR>.84317E-3</BSTAR><MEAN_MOTION_DOT>.2358E-4</MEAN_MOTION_DOT><MEAN_MOTION_DDOT>0</MEAN_MOTION_DDOT></tleParameters></data></segment></body></omm>
<omm id="CCSDS_OMM_VERS" version="2.0">
<header><CREATION_DATE/><ORIGINATOR/></header><body><segment><metadata><OBJECT_NAME>ORBCOMM FM34</OBJECT_NAME><OBJECT_ID>1999-065G</OBJECT_ID><CENTER_NAME>EARTH</CENTER_NAME><REF_FRAME>TEME</REF_FRAME><TIME_SYSTEM>UTC</TIME_SYSTEM><MEAN_ELEMENT_THEORY>SGP4</MEAN_ELEMENT_THEORY></metadata><data><meanElements><EPOCH>2025-01-28T17:46:26.616576</EPOCH><MEAN_MOTION>14.36586206</MEAN_MOTION><ECCENTRICITY>.0004801</ECCENTRICITY><INCLINATION>45.0394</INCLINATION><RA_OF_ASC_NODE>35.9276</RA_OF_ASC_NODE><ARG_OF_PERICENTER>337.1973</ARG_OF_PERICENTER><MEAN_ANOMALY>22.8662</MEAN_ANOMALY></meanElements><tleParameters><EPHEMERIS_TYPE>0</EPHEMERIS_TYPE><CLASSIFICATION_TYPE>U</CLASSIFICATION_TYPE><NORAD_CAT_ID>25986</NORAD_CAT_ID><ELEMENT_SET_NO>999</ELEMENT_SET_NO><REV_AT_EPOCH>31484</REV_AT_EPOCH><BSTAR>.73833E-3</BSTAR><MEAN_MOTION_DOT>.2049E-4</MEAN_MOTION_DOT><MEAN_MOTION_DDOT>0</MEAN_MOTION_DDOT></tleParameters></data></segment></body></omm>
<omm id="CCSDS_OMM_VERS" version="2.0">
<header><CREATION_DATE/><ORIGINATOR/></header><body><segment><metadata><OBJECT_NAME>ORBCOMM FM38</OBJECT_NAME><OBJECT_ID>2008-031A</OBJECT_ID><CENTER_NAME>EARTH</CENTER_NAME><REF_FRAME>TEME</REF_FRAME><TIME_SYSTEM>UTC</TIME_SYSTEM><MEAN_ELEMENT_THEORY>SGP4</MEAN_ELEMENT_THEORY></metadata><data><meanElements><EPOCH>2025-01-28T17:53:21.803136</EPOCH><MEAN_MOTION>14.80251224</MEAN_MOTION><ECCENTRICITY>.0005796</ECCENTRICITY><INCLINATION>48.4389</INCLINATION><RA_OF_ASC_NODE>259.3113</RA_OF_ASC_NODE><ARG_OF_PERICENTER>161.4479</ARG_OF_PERICENTER><MEAN_ANOMALY>198.6648</MEAN_ANOMALY></meanElements><tleParameters><EPHEMERIS_TYPE>0</EPHEMERIS_TYPE><CLASSIFICATION_TYPE>U</CLASSIFICATION_TYPE><NORAD_CAT_ID>33060</NORAD_CAT_ID><ELEMENT_SET_NO>999</ELEMENT_SET_NO><REV_AT_EPOCH>89408</REV_AT_EPOCH><BSTAR>.52415E-3</BSTAR><MEAN_MOTION_DOT>.3822E-4</MEAN_MOTION_DOT><MEAN_MOTION_DDOT>0</MEAN_MOTION_DDOT></tleParameters></data></segment></body></omm>
<omm id="CCSDS_OMM_VERS" version="2.0">
<header><CREATION_DATE/><ORIGINATOR/></header><body><segment><metadata><OBJECT_NAME>ORBCOMM FM41</OBJECT_NAME><OBJECT_ID>2008-031B</OBJECT_ID><CENTER_NAME>EARTH</CENTER_NAME><REF_FRAME>TEME</REF_FRAME><TIME_SYSTEM>UTC</TIME_SYSTEM><MEAN_ELEMENT_THEORY>SGP4</MEAN_ELEMENT_THEORY></metadata><data><meanElements><EPOCH>2025-01-28T09:45:22.119264</EPOCH><MEAN_MOTION>14.79876283</MEAN_MOTION><ECCENTRICITY>.0004867</ECCENTRICITY><INCLINATION>48.4427</INCLINATION><RA_OF_ASC_NODE>268.2419</RA_OF_ASC_NODE><ARG_OF_PERICENTER>145.8722</ARG_OF_PERICENTER><MEAN_ANOMALY>28.8934</MEAN_ANOMALY></meanElements><tleParameters><EPHEMERIS_TYPE>0</EPHEMERIS_TYPE><CLASSIFICATION_TYPE>U</CLASSIFICATION_TYPE><NORAD_CAT_ID>33061</NORAD_CAT_ID><ELEMENT_SET_NO>999</ELEMENT_SET_NO><REV_AT_EPOCH>89352</REV_AT_EPOCH><BSTAR>.51395E-3</BSTAR><MEAN_MOTION_DOT>.3708E-4</MEAN_MOTION_DOT><MEAN_MOTION_DDOT>0</MEAN_MOTION_DDOT></tleParameters></data></segment></body></omm>
<omm id="CCSDS_OMM_VERS" version="2.0">
<header><CREATION_DATE/><ORIGINATOR/></header><body><segment><metadata><OBJECT_NAME>ORBCOMM FM29</OBJECT_NAME><OBJECT_ID>2008-031C</OBJECT_ID><CENTER_NAME>EARTH</CENTER_NAME><REF_FRAME>TEME</REF_FRAME><TIME_SYSTEM>UTC</TIME_SYSTEM><MEAN_ELEMENT_THEORY>SGP4</MEAN_ELEMENT_THEORY></metadata><data><meanElements><EPOCH>2025-01-28T20:20:20.319360</EPOCH><MEAN_MOTION>14.79926406</MEAN_MOTION><ECCENTRICITY>.0006619</ECCENTRICITY><INCLINATION>48.4384</INCLINATION><RA_OF_ASC_NODE>274.0979</RA_OF_ASC_NODE><ARG_OF_PERICENTER>145.2784</ARG_OF_PERICENTER><MEAN_ANOMALY>265.7917</MEAN_ANOMALY></meanElements><tleParameters><EPHEMERIS_TYPE>0</EPHEMERIS_TYPE><CLASSIFICATION_TYPE>U</CLASSIFICATION_TYPE><NORAD_CAT_ID>33062</NORAD_CAT_ID><ELEMENT_SET_NO>999</ELEMENT_SET_NO><REV_AT_EPOCH>89350</REV_AT_EPOCH><BSTAR>.58688E-3</BSTAR><MEAN_MOTION_DOT>.4271E-4</MEAN_MOTION_DOT><MEAN_MOTION_DDOT>0</MEAN_MOTION_DDOT></tleParameters></data></segment></body></omm>
<omm id="CCSDS_OMM_VERS" version="2.0">
<header><CREATION_DATE/><ORIGINATOR/></header><body><segment><metadata><OBJECT_NAME>ORBCOMM FM39</OBJECT_NAME><OBJECT_ID>2008-031D</OBJECT_ID><CENTER_NAME>EARTH</CENTER_NAME><REF_FRAME>TEME</REF_FRAME><TIME_SYSTEM>UTC</TIME_SYSTEM><MEAN_ELEMENT_THEORY>SGP4</MEAN_ELEMENT_THEORY></metadata><data><meanElements><EPOCH>2025-01-28T20:56:41.485632</EPOCH><MEAN_MOTION>14.78614018</MEAN_MOTION><ECCENTRICITY>.0007273</ECCENTRICITY><INCLINATION>48.4408</INCLINATION><RA_OF_ASC_NODE>296.7818</RA_OF_ASC_NODE><ARG_OF_PERICENTER>117.9611</ARG_OF_PERICENTER><MEAN_ANOMALY>242.2040</MEAN_ANOMALY></meanElements><tleParameters><EPHEMERIS_TYPE>0</EPHEMERIS_TYPE><CLASSIFICATION_TYPE>U</CLASSIFICATION_TYPE><NORAD_CAT_ID>33063</NORAD_CAT_ID><ELEMENT_SET_NO>999</ELEMENT_SET_NO><REV_AT_EPOCH>89317</REV_AT_EPOCH><BSTAR>.57765E-3</BSTAR><MEAN_MOTION_DOT>.4067E-4</MEAN_MOTION_DOT><MEAN_MOTION_DDOT>0</MEAN_MOTION_DDOT></tleParameters></data></segment></body></omm>

</ndm>
